ONEWEB-0054             
1 45158U 20008AD  26165.18114039  .00000518  00000+0  14490-2 0  9993
2 45158  87.8841  36.8656 0001873  83.3603 276.7737 13.10370074307631
ONEWEB-0056             
1 45159U 20008AE  26165.15279595  .00000079  00000+0  18923-3 0  9998
2 45159  87.8845  36.8653 0002018  89.4778 270.6580 13.10377972307784
ONEWEB-0057             
1 45160U 20008AF  26165.09330619  .00000703  00000+0  19771-2 0  9993
2 45160  87.8837  36.8897 0002191  74.3766 285.7603 13.10372531307946
ONEWEB-0058             
1 45161U 20008AG  26165.15637797  .00000301  00000+0  82642-3 0  9990
2 45161  87.8833  36.8831 0001594  82.0942 278.0366 13.10375436308027
ONEWEB-0059             
1 45162U 20008AH  26165.15305598  .00000135  00000+0  35125-3 0  9991
2 45162  87.8836  36.8827 0001731  77.2918 282.8403 13.10375908307925
ONEWEB-0062             
1 45163U 20008AJ  26165.17602730  .00000678  00000+0  19050-2 0  9992
2 45163  87.8840  36.8649 0001457  92.1618 267.9677 13.10371521307790
ONEWEB-0065             
1 45164U 20008AK  26165.13284486 -.00000594  00000+0 -17385-2 0  9991
2 45164  87.8839  36.8815 0002153  80.8448 279.2922 13.10372651307483
ONEWEB-0066             
1 45424U 20020A   26165.09480876 -.00000464  00000+0 -13440-2 0  9994
2 45424  87.8889  21.6870 0001709  79.6138 280.5183 13.11416204302278
ONEWEB-0067             
1 45425U 20020B   26165.13272998  .00000582  00000+0  16061-2 0  9995
2 45425  87.8910  21.6006 0001968  82.0623 278.0728 13.11423267302330
ONEWEB-0080             
1 45426U 20020C   26165.13227001  .00000580  00000+0  16006-2 0  9998
2 45426  87.8900  21.6754 0001579  92.2811 267.8498 13.11416640302304
ONEWEB-0090             
1 45427U 20020D   26165.16107503 -.00000434  00000+0 -12619-2 0  9992
2 45427  87.8898  21.6739 0001773  87.2443 272.8888 13.11414737302275
ONEWEB-0061             
1 45428U 20020E   26165.11672441  .00000323  00000+0  87490-3 0  9991
2 45428  87.8896  21.6679 0001764  84.6088 275.5241 13.11419259302225
ONEWEB-0081             
1 45429U 20020F   26165.09820132 -.00000582  00000+0 -16780-2 0  9993
2 45429  87.8895  21.6824 0001851  78.7889 281.3447 13.11417521302332
ONEWEB-0069             
1 45430U 20020G   26165.10003154 -.00000326  00000+0 -95681-3 0  9998
2 45430  87.8894  21.6847 0001832  82.3139 277.8196 13.11416688302262
ONEWEB-0031             
1 45431U 20020H   26165.13552096  .00000519  00000+0  14279-2 0  9991
2 45431  87.8886  21.6825 0001668  89.7692 270.3627 13.11416533302257
ONEWEB-0027             
1 45432U 20020J   26165.07152535  .00031920  00000+0  82883-1 0  9994
2 45432  87.9196   6.4929 0001390 125.0409 235.0852 13.16833506305946
ONEWEB-0064             
1 45433U 20020K   26165.13382757  .00000548  00000+0  15115-2 0  9990
2 45433  87.8890  21.6746 0001777  90.8195 269.3137 13.11415510302289
ONEWEB-0018             
1 45434U 20020L   26165.08960656 -.00002988  00000+0 -84681-2 0  9991
2 45434  87.8891  21.6825 0001540  77.5786 282.5514 13.11433388302228
ONEWEB-0083             
1 45435U 20020M   26165.15600015 -.00000311  00000+0 -91446-3 0  9996
2 45435  87.8895  21.6630 0001749  86.5012 273.6316 13.11415145302277
ONEWEB-0095             
1 45436U 20020N   26165.14753687  .00000055  00000+0  11945-3 0  9999
2 45436  87.8896  21.6733 0002443  95.0896 265.0511 13.11419246302278
ONEWEB-0092             
1 45437U 20020P   26165.10160031 -.00021688  00000+0 -61266-1 0  9997
2 45437  87.8898  21.6744 0001581  98.8080 261.3227 13.11535797302386
ONEWEB-0085             
1 45438U 20020Q   26165.15572017 -.00000278  00000+0 -81912-3 0  9998
2 45438  87.8889  21.6700 0001811  85.7722 274.3613 13.11414161302275
ONEWEB-0096             
1 45439U 20020R   26165.15755972 -.00000371  00000+0 -10825-2 0  9990
2 45439  87.8898  21.6655 0001877  87.9818 272.1525 13.11421046302264
ONEWEB-0037             
1 45440U 20020S   26165.11572245  .00000295  00000+0  79163-3 0  9992
2 45440  87.8908  21.6476 0001904  86.0872 274.0474 13.11913751302296
ONEWEB-0042             
1 45441U 20020T   26165.14724975 -.00000130  00000+0 -40345-3 0  9995
2 45441  87.8903  21.6637 0001866  81.2698 278.8642 13.11413088302265
ONEWEB-0098             
1 45442U 20020U   26165.14315112  .00000188  00000+0  49566-3 0  9990
2 45442  87.8893  21.6741 0001747  86.7563 273.3765 13.11414896302241
ONEWEB-0055             
1 45443U 20020V   26165.12183538  .00000492  00000+0  13537-2 0  9990
2 45443  87.8896  21.6772 0001756  87.1930 272.9399 13.11417858302218
ONEWEB-0093             
1 45444U 20020W   26165.10173091 -.00001014  00000+0 -28961-2 0  9992
2 45444  87.8897  21.6743 0001992  73.9616 286.1731 13.11420077302274
ONEWEB-0029             
1 45445U 20020X   26165.12887222  .00000656  00000+0  18156-2 0  9997
2 45445  87.8884  21.6778 0001783  74.9263 285.2063 13.11419591302251
ONEWEB-0068             
1 45446U 20020Y   26165.10146303 -.00000285  00000+0 -84126-3 0  9995
2 45446  87.8899  21.6780 0001765  78.7374 281.3952 13.11418968302190
ONEWEB-0046             
1 45447U 20020Z   26165.09311419 -.00000459  00000+0 -13297-2 0  9999
2 45447  87.8892  21.6860 0002036  79.6154 280.5203 13.11415656302204
